GLOBALSTAR M057         
1 25943U 99058A   25043.50069173 -.00000031  00000+0  56357-3 0  9992
2 25943  52.0015 342.0621 0002776 112.8682 247.2461 12.24811257151653
GLOBALSTAR M059         
1 25944U 99058B   25043.63415420 -.00000099  00000+0 -15319-3 0  9995
2 25944  52.0000 184.1272 0001324  97.6808 275.4323 11.99973740559090
GLOBALSTAR M056         
1 25945U 99058C   25043.56486479 -.00000079  00000+0  10209-3 0  9990
2 25945  51.9943 189.4716 0000222  40.8863  37.7846 12.04778500147606
GLOBALSTAR M031         
1 25946U 99058D   25043.49209347 -.00000118  00000+0 -28377-3 0  9990
2 25946  51.9961  89.4694 0000978 268.0936 239.2324 12.16029263149615
GLOBALSTAR M039         
1 25961U 99062A   25043.37658995 -.00000077  00000+0  15094-3 0  9991
2 25961  51.9848 288.8667 0003539  72.2107 287.9146 12.62318245164455
GLOBALSTAR M034         
1 25962U 99062B   25043.56488887 -.00000012  00000+0  11001-2 0  9996
2 25962  51.9905 335.3353 0013932 163.7030   7.5888 11.79443319123686
GLOBALSTAR M029         
1 25963U 99062C   25043.57715796 -.00000056  00000+0  37529-3 0  9992
2 25963  51.9803  72.4250 0002563 224.5377 258.9509 11.99891370154162
